QZS-1R                  
1 49336U 21096A   24264.83797409 -.00000242  00000+0  00000+0 0  9995
2 49336  36.1407  89.0765 0743776 269.7820  77.6791  1.00289062 10647
